{"type": "FeatureCollection", "features": [{"type": "Feature", "geometry": {"type": "LineString", "coordinates": [[8.77042806, 40.66614144], [8.769139979999999, 40.663374479999995]]}}, {"type": "Feature", "geometry": {"type": "LineString", "coordinates": [[16.557866159999996, 40.4012952], [16.554814619999995, 40.40074224]]}}, {"type": "Feature", "geometry": {"type": "LineString", "coordinates": [[16.557866159999996, 40.4012952], [16.554814619999995, 40.40074224]]}}, {"type": "Feature", "geometry": {"type": "LineString", "coordinates": [[16.557866159999996, 40.4012952], [16.554814619999995, 40.40074224]]}}, {"type": "Feature", "geometry": {"type": "LineString", "coordinates": [[16.784830319999998, 39.220345079999994], [16.788052859999993, 39.2218641]]}}, {"type": "Feature", "geometry": {"type": "LineString", "coordinates": [[15.701559539999998, 40.611984119999995], [15.702033479999997, 40.613059979999996]]}}, {"type": "Feature", "geometry": {"type": "LineString", "coordinates": [[16.784840399999993, 39.22404408], [16.784840939999995, 39.2203764]]}}, {"type": "Feature", "geometry": {"type": "LineString", "coordinates": [[15.351567359999997, 40.595376959999996], [15.35157744, 40.595363279999994]]}}, {"type": "Feature", "geometry": {"type": "LineString", "coordinates": [[16.715539139999997, 40.400720639999996], [16.714052699999996, 40.40072658]]}}, {"type": "Feature", "geometry": {"type": "LineString", "coordinates": [[15.133636679999995, 41.108521679999996], [15.135269639999997, 41.105612699999995]]}}, {"type": "Feature", "geometry": {"type": "LineString", "coordinates": [[16.218610799999993, 39.34366254], [16.218617279999997, 39.33904518]]}}, {"type": "Feature", "geometry": {"type": "LineString", "coordinates": [[16.784960999999996, 41.099675579999996], [16.784842559999994, 41.09967666]]}}, {"type": "Feature", "geometry": {"type": "LineString", "coordinates": [[14.856123839999995, 40.89618702], [14.856112319999994, 40.8961773]]}}, {"type": "Feature", "geometry": {"type": "LineString", "coordinates": [[15.919276919999994, 40.592456999999996], [15.917798579999996, 40.59537228]]}}, {"type": "Feature", "geometry": {"type": "LineString", "coordinates": [[16.722908159999996, 39.2575338], [16.718672759999997, 39.263862599999996]]}}, {"type": "Feature", "geometry": {"type": "LineString", "coordinates": [[16.381920479999998, 40.489208639999994], [16.377854279999994, 40.489255439999994]]}}, {"type": "Feature", "geometry": {"type": "LineString", "coordinates": [[9.29997744, 40.77232812], [9.29556024, 40.77232452]]}}, {"type": "Feature", "geometry": {"type": "LineString", "coordinates": [[8.77042806, 40.66614144], [8.769139979999999, 40.663374479999995]]}}, {"type": "Feature", "geometry": {"type": "LineString", "coordinates": [[16.643503679999995, 38.87898822], [16.6432704, 38.87899452]]}}, {"type": "Feature", "geometry": {"type": "LineString", "coordinates": [[14.34295968, 40.90503348], [14.34297462, 40.90504212]]}}, {"type": "Feature", "geometry": {"type": "LineString", "coordinates": [[15.212983199999996, 41.1056847], [15.21000978, 41.1048531]]}}, {"type": "Feature", "geometry": {"type": "LineString", "coordinates": [[9.476926079999998, 40.87849626], [9.476914559999997, 40.87848258]]}}, {"type": "Feature", "geometry": {"type": "LineString", "coordinates": [[16.908830879999996, 40.825406879999996], [16.913871599999993, 40.82545638]]}}, {"type": "Feature", "geometry": {"type": "LineString", "coordinates": [[15.000636839999999, 41.09082678], [14.997671699999998, 41.09082678]]}}, {"type": "Feature", "geometry": {"type": "LineString", "coordinates": [[14.838426239999997, 40.86078858], [14.838557279999996, 40.86079632]]}}, {"type": "Feature", "geometry": {"type": "LineString", "coordinates": [[16.21859712, 39.333428819999995], [16.216032299999995, 39.336180119999995]]}}, {"type": "Feature", "geometry": {"type": "LineString", "coordinates": [[16.876474079999994, 40.347645119999996], [16.875998159999995, 40.347647099999996]]}}, {"type": "Feature", "geometry": {"type": "LineString", "coordinates": [[16.572507719999997, 38.9055294], [16.572496019999996, 38.905535699999994]]}}, {"type": "Feature", "geometry": {"type": "LineString", "coordinates": [[16.820464199999996, 41.073133139999996], [16.822467419999995, 41.07313152]]}}, {"type": "Feature", "geometry": {"type": "LineString", "coordinates": [[9.016610099999994, 40.736927879999996], [9.016868759999994, 40.73761206]]}}, {"type": "Feature", "geometry": {"type": "LineString", "coordinates": [[16.767137939999998, 39.26827278], [16.767141539999997, 39.26649276]]}}, {"type": "Feature", "geometry": {"type": "LineString", "coordinates": [[8.69835552, 40.665610619999995], [8.698360739999998, 40.66614792]]}}, {"type": "Feature", "geometry": {"type": "LineString", "coordinates": [[17.046694859999995, 39.10902624], [17.054643299999995, 39.10902606]]}}, {"type": "Feature", "geometry": {"type": "LineString", "coordinates": [[15.670080419999998, 41.16160008], [15.670083479999995, 41.16160872]]}}, {"type": "Feature", "geometry": {"type": "LineString", "coordinates": [[14.307255599999998, 40.90502934], [14.307586439999994, 40.90828428]]}}, {"type": "Feature", "geometry": {"type": "LineString", "coordinates": [[14.520296939999994, 40.92271596], [14.519909939999998, 40.920398459999994]]}}, {"type": "Feature", "geometry": {"type": "LineString", "coordinates": [[14.856118259999995, 40.966961039999994], [14.856109799999999, 40.96155006]]}}, {"type": "Feature", "geometry": {"type": "LineString", "coordinates": [[14.797140719999994, 40.754627459999995], [14.803033919999997, 40.75477632]]}}, {"type": "Feature", "geometry": {"type": "LineString", "coordinates": [[14.643784679999996, 40.897244519999994], [14.643770279999998, 40.89619008]]}}, {"type": "Feature", "geometry": {"type": "LineString", "coordinates": [[14.643784679999996, 40.897244519999994], [14.643770279999998, 40.89619008]]}}, {"type": "Feature", "geometry": {"type": "LineString", "coordinates": [[15.706259519999996, 40.613072579999994], [15.701802179999994, 40.6131399]]}}, {"type": "Feature", "geometry": {"type": "LineString", "coordinates": [[15.422349839999995, 41.16160566], [15.422344439999996, 41.16159792]]}}]}