{"type": "FeatureCollection", "features": [{"type": "Feature", "properties": {"flags": "0x10", "label": "ONE-WAY(0x10)", "stroke": "#FF9800", "stroke-width": 3}, "geometry": {"type": "LineString", "coordinates": [[7.6456125599999964, 45.09868176], [7.640357639999998, 45.09868788]]}}, {"type": "Feature", "properties": {"flags": "0x10", "label": "ONE-WAY(0x10)", "stroke": "#FF9800", "stroke-width": 3}, "geometry": {"type": "LineString", "coordinates": [[7.667647079999995, 45.07655886], [7.66320846, 45.076550579999996]]}}, {"type": "Feature", "properties": {"flags": "0x10", "label": "ONE-WAY(0x10)", "stroke": "#FF9800", "stroke-width": 3}, "geometry": {"type": "LineString", "coordinates": [[7.681073819999995, 45.09963], [7.680916319999994, 45.104209739999995]]}}, {"type": "Feature", "properties": {"flags": "0x10", "label": "ONE-WAY(0x10)", "stroke": "#FF9800", "stroke-width": 3}, "geometry": {"type": "LineString", "coordinates": [[7.680894719999998, 45.05887439999999], [7.680901559999995, 45.0588699]]}}, {"type": "Feature", "properties": {"flags": "0x00", "label": "BIDIREZ?(0x00)", "stroke": "#2196F3", "stroke-width": 3}, "geometry": {"type": "LineString", "coordinates": [[7.627831799999996, 45.06329088], [7.627829999999996, 45.063288]]}}, {"type": "Feature", "properties": {"flags": "0x00", "label": "BIDIREZ?(0x00)", "stroke": "#2196F3", "stroke-width": 3}, "geometry": {"type": "LineString", "coordinates": [[7.7605216799999965, 45.09868176], [7.7546358600000005, 45.09955205999999]]}}, {"type": "Feature", "properties": {"flags": "0x00", "label": "BIDIREZ?(0x00)", "stroke": "#2196F3", "stroke-width": 3}, "geometry": {"type": "LineString", "coordinates": [[7.64445714, 45.08098236], [7.6455175199999985, 45.08099136]]}}]}